STARLINK-36589          
1 67843U 26033Y   26068.99424639  .00274945  00000+0  12613-2 0  9995
2 67843  42.9977 269.4323 0002086 250.8603 109.2043 15.82116261  4676
STARLINK-36598          
1 67844U 26033Z   26068.99349844  .00395096  00000+0  17830-2 0  9997
2 67844  42.9981 269.4275 0002048 271.9135  88.1502 15.82154324  4677
STARLINK-36606          
1 67845U 26033AA  26068.92962605  .00481643  00000+0  21531-2 0  9994
2 67845  42.9978 269.8070 0001334 333.7804  26.3000 15.82133261  4661
STARLINK-36658          
1 67846U 26033AB  26068.99200075  .00238496  00000+0  11003-2 0  9997
2 67846  42.9978 269.4153 0002190 282.2073  77.8554 15.82092186  4673
STARLINK-36618          
1 67847U 26033AC  26069.00003472  .00054984  94844-5  17157-3 0  9993
2 67847  42.9823 267.1174 0002338 281.7808 290.3063 15.91496715  4713
STARLINK-36660          
1 67848U 26033AD  26068.92812597  .00588643  00000+0  25923-2 0  9998
2 67848  42.9975 269.7949 0002123 306.3567  53.7109 15.82182214  4660
STARLINK-36602          
1 67849U 26033AE  26068.99049806  .00275679  00000+0  12642-2 0  9997
2 67849  42.9975 269.4026 0002139 256.5139 103.5494 15.82121863  4677
STARLINK-36840          
1 67850U 26034A   26069.30059684  .00500020  00000+0  23714-2 0  9994
2 67850  53.1583 208.2957 0001601 167.3230 192.7834 15.81071105  4036
STARLINK-36348          
1 67851U 26034B   26069.29985364  .00569409  00000+0  26766-2 0  9992
2 67851  53.1583 208.2908 0001464  12.7907 347.3153 15.81083231  4039
STARLINK-36276          
1 67852U 26034C   26069.29909215  .00490692  00000+0  23276-2 0  9994
2 67852  53.1583 208.2855 0001430 159.8625 200.2455 15.81091449  4036
STARLINK-36785          
1 67853U 26034D   26068.91903862  .00326432  00000+0  15860-2 0  9995
2 67853  53.1587 210.1814 0001166  63.5803 296.5339 15.81005381  3974
STARLINK-36608          
1 67854U 26034E   26069.29760058  .00486925  00000+0  23168-2 0  9990
2 67854  53.1587 208.2756 0000822 167.5203 192.5841 15.81033870  4029
STARLINK-36838          
1 67855U 26034F   26068.98077077  .00436265  00000+0  20851-2 0  9996
2 67855  53.1585 209.8529 0001425  49.1203 310.9943 15.81069988  3980
STARLINK-36843          
1 67856U 26034G   26069.23213030  .00332150  00000+0  16119-2 0  9997
2 67856  53.1584 208.5760 0000268  56.8468 303.2580 15.81012866  4026
STARLINK-36828          
1 67857U 26034H   26069.29609782  .00186057  00000+0  92303-3 0  9990
2 67857  53.1581 208.2655 0000462  48.4543 311.6519 15.80942899  4034
STARLINK-36837          
1 67858U 26034J   26068.85206839  .00281136  00000+0  13755-2 0  9995
2 67858  53.1587 210.4715 0000903 123.1299 236.9811 15.80976035  3966
