[{"OBJECT_NAME":"STARLINK-36589","OBJECT_ID":"2026-033Y","EPOCH":"2026-03-09T23:51:42.888096","MEAN_MOTION":15.82116261,"ECCENTRICITY":0.00020865,"INCLINATION":42.9977,"RA_OF_ASC_NODE":269.4323,"ARG_OF_PERICENTER":250.8603,"MEAN_ANOMALY":109.2043,"EPHEMERIS_TYPE":0,"CLASSIFICATION_TYPE":"U","NORAD_CAT_ID":67843,"ELEMENT_SET_NO":999,"REV_AT_EPOCH":467,"BSTAR":0.0012612835,"MEAN_MOTION_DOT":0.00274945,"MEAN_MOTION_DDOT":0},{"OBJECT_NAME":"STARLINK-36598","OBJECT_ID":"2026-033Z","EPOCH":"2026-03-09T23:50:38.265216","MEAN_MOTION":15.82154324,"ECCENTRICITY":0.00020482,"INCLINATION":42.9981,"RA_OF_ASC_NODE":269.4275,"ARG_OF_PERICENTER":271.9135,"MEAN_ANOMALY":88.1502,"EPHEMERIS_TYPE":0,"CLASSIFICATION_TYPE":"U","NORAD_CAT_ID":67844,"ELEMENT_SET_NO":999,"REV_AT_EPOCH":467,"BSTAR":0.0017829959,"MEAN_MOTION_DOT":0.00395096,"MEAN_MOTION_DDOT":0},{"OBJECT_NAME":"STARLINK-36606","OBJECT_ID":"2026-033AA","EPOCH":"2026-03-09T22:18:39.690720","MEAN_MOTION":15.82133261,"ECCENTRICITY":0.0001334,"INCLINATION":42.9978,"RA_OF_ASC_NODE":269.807,"ARG_OF_PERICENTER":333.7804,"MEAN_ANOMALY":26.3,"EPHEMERIS_TYPE":0,"CLASSIFICATION_TYPE":"U","NORAD_CAT_ID":67845,"ELEMENT_SET_NO":999,"REV_AT_EPOCH":466,"BSTAR":0.0021531,"MEAN_MOTION_DOT":0.00481643,"MEAN_MOTION_DDOT":0},{"OBJECT_NAME":"STARLINK-36658","OBJECT_ID":"2026-033AB","EPOCH":"2026-03-09T23:48:28.864800","MEAN_MOTION":15.82092186,"ECCENTRICITY":0.00021905,"INCLINATION":42.9978,"RA_OF_ASC_NODE":269.4153,"ARG_OF_PERICENTER":282.2073,"MEAN_ANOMALY":77.8554,"EPHEMERIS_TYPE":0,"CLASSIFICATION_TYPE":"U","NORAD_CAT_ID":67846,"ELEMENT_SET_NO":999,"REV_AT_EPOCH":467,"BSTAR":0.0011002843,"MEAN_MOTION_DOT":0.00238496,"MEAN_MOTION_DDOT":0},{"OBJECT_NAME":"STARLINK-36618","OBJECT_ID":"2026-033AC","EPOCH":"2026-03-10T00:00:02.999808","MEAN_MOTION":15.91496715,"ECCENTRICITY":0.00023384,"INCLINATION":42.9823,"RA_OF_ASC_NODE":267.1174,"ARG_OF_PERICENTER":281.7808,"MEAN_ANOMALY":290.3063,"EPHEMERIS_TYPE":0,"CLASSIFICATION_TYPE":"U","NORAD_CAT_ID":67847,"ELEMENT_SET_NO":999,"REV_AT_EPOCH":471,"BSTAR":0.00017157185,"MEAN_MOTION_DOT":0.00054984,"MEAN_MOTION_DDOT":9.484428e-6},{"OBJECT_NAME":"STARLINK-36660","OBJECT_ID":"2026-033AD","EPOCH":"2026-03-09T22:16:30.083808","MEAN_MOTION":15.82182214,"ECCENTRICITY":0.0002123,"INCLINATION":42.9975,"RA_OF_ASC_NODE":269.7949,"ARG_OF_PERICENTER":306.3567,"MEAN_ANOMALY":53.7109,"EPHEMERIS_TYPE":0,"CLASSIFICATION_TYPE":"U","NORAD_CAT_ID":67848,"ELEMENT_SET_NO":999,"REV_AT_EPOCH":466,"BSTAR":0.0025923,"MEAN_MOTION_DOT":0.00588643,"MEAN_MOTION_DDOT":0},{"OBJECT_NAME":"STARLINK-36602","OBJECT_ID":"2026-033AE","EPOCH":"2026-03-09T23:46:19.032384","MEAN_MOTION":15.82121863,"ECCENTRICITY":0.00021397,"INCLINATION":42.9975,"RA_OF_ASC_NODE":269.4026,"ARG_OF_PERICENTER":256.5139,"MEAN_ANOMALY":103.5494,"EPHEMERIS_TYPE":0,"CLASSIFICATION_TYPE":"U","NORAD_CAT_ID":67849,"ELEMENT_SET_NO":999,"REV_AT_EPOCH":467,"BSTAR":0.0012641995,"MEAN_MOTION_DOT":0.00275679,"MEAN_MOTION_DDOT":0},{"OBJECT_NAME":"STARLINK-36840","OBJECT_ID":"2026-034A","EPOCH":"2026-03-10T07:12:51.566976","MEAN_MOTION":15.81071105,"ECCENTRICITY":0.00016015,"INCLINATION":53.1583,"RA_OF_ASC_NODE":208.2957,"ARG_OF_PERICENTER":167.323,"MEAN_ANOMALY":192.7834,"EPHEMERIS_TYPE":0,"CLASSIFICATION_TYPE":"U","NORAD_CAT_ID":67850,"ELEMENT_SET_NO":999,"REV_AT_EPOCH":403,"BSTAR":0.0023714474,"MEAN_MOTION_DOT":0.0050002,"MEAN_MOTION_DDOT":0},{"OBJECT_NAME":"STARLINK-36348","OBJECT_ID":"2026-034B","EPOCH":"2026-03-10T07:11:47.354496","MEAN_MOTION":15.81083231,"ECCENTRICITY":0.0001464,"INCLINATION":53.1583,"RA_OF_ASC_NODE":208.2908,"ARG_OF_PERICENTER":12.7907,"MEAN_ANOMALY":347.3153,"EPHEMERIS_TYPE":0,"CLASSIFICATION_TYPE":"U","NORAD_CAT_ID":67851,"ELEMENT_SET_NO":999,"REV_AT_EPOCH":403,"BSTAR":0.0026765813,"MEAN_MOTION_DOT":0.00569409,"MEAN_MOTION_DDOT":0},{"OBJECT_NAME":"STARLINK-36276","OBJECT_ID":"2026-034C","EPOCH":"2026-03-10T07:10:41.561760","MEAN_MOTION":15.81091449,"ECCENTRICITY":0.00014305,"INCLINATION":53.1583,"RA_OF_ASC_NODE":208.2855,"ARG_OF_PERICENTER":159.8625,"MEAN_ANOMALY":200.2455,"EPHEMERIS_TYPE":0,"CLASSIFICATION_TYPE":"U","NORAD_CAT_ID":67852,"ELEMENT_SET_NO":999,"REV_AT_EPOCH":403,"BSTAR":0.0023276116,"MEAN_MOTION_DOT":0.00490692,"MEAN_MOTION_DDOT":0},{"OBJECT_NAME":"STARLINK-36785","OBJECT_ID":"2026-034D","EPOCH":"2026-03-09T22:03:24.936768","MEAN_MOTION":15.81005381,"ECCENTRICITY":0.0001166,"INCLINATION":53.1587,"RA_OF_ASC_NODE":210.1814,"ARG_OF_PERICENTER":63.5803,"MEAN_ANOMALY":296.5339,"EPHEMERIS_TYPE":0,"CLASSIFICATION_TYPE":"U","NORAD_CAT_ID":67853,"ELEMENT_SET_NO":999,"REV_AT_EPOCH":397,"BSTAR":0.001586,"MEAN_MOTION_DOT":0.00326432,"MEAN_MOTION_DDOT":0},{"OBJECT_NAME":"STARLINK-36608","OBJECT_ID":"2026-034E","EPOCH":"2026-03-10T07:08:32.690112","MEAN_MOTION":15.8103387,"ECCENTRICITY":8.227e-5,"INCLINATION":53.1587,"RA_OF_ASC_NODE":208.2756,"ARG_OF_PERICENTER":167.5203,"MEAN_ANOMALY":192.5841,"EPHEMERIS_TYPE":0,"CLASSIFICATION_TYPE":"U","NORAD_CAT_ID":67854,"ELEMENT_SET_NO":999,"REV_AT_EPOCH":402,"BSTAR":0.0023167686,"MEAN_MOTION_DOT":0.00486925,"MEAN_MOTION_DDOT":0},{"OBJECT_NAME":"STARLINK-36838","OBJECT_ID":"2026-034F","EPOCH":"2026-03-09T23:32:18.594528","MEAN_MOTION":15.81069988,"ECCENTRICITY":0.00014254,"INCLINATION":53.1585,"RA_OF_ASC_NODE":209.8529,"ARG_OF_PERICENTER":49.1203,"MEAN_ANOMALY":310.9943,"EPHEMERIS_TYPE":0,"CLASSIFICATION_TYPE":"U","NORAD_CAT_ID":67855,"ELEMENT_SET_NO":999,"REV_AT_EPOCH":398,"BSTAR":0.0020851495,"MEAN_MOTION_DOT":0.00436265,"MEAN_MOTION_DDOT":0},{"OBJECT_NAME":"STARLINK-36843","OBJECT_ID":"2026-034G","EPOCH":"2026-03-10T05:34:16.057920","MEAN_MOTION":15.81012866,"ECCENTRICITY":2.684e-5,"INCLINATION":53.1584,"RA_OF_ASC_NODE":208.576,"ARG_OF_PERICENTER":56.8468,"MEAN_ANOMALY":303.258,"EPHEMERIS_TYPE":0,"CLASSIFICATION_TYPE":"U","NORAD_CAT_ID":67856,"ELEMENT_SET_NO":999,"REV_AT_EPOCH":402,"BSTAR":0.0016119463,"MEAN_MOTION_DOT":0.0033215,"MEAN_MOTION_DDOT":0},{"OBJECT_NAME":"STARLINK-36828","OBJECT_ID":"2026-034H","EPOCH":"2026-03-10T07:06:22.851648","MEAN_MOTION":15.80942899,"ECCENTRICITY":4.624e-5,"INCLINATION":53.1581,"RA_OF_ASC_NODE":208.2655,"ARG_OF_PERICENTER":48.4543,"MEAN_ANOMALY":311.6519,"EPHEMERIS_TYPE":0,"CLASSIFICATION_TYPE":"U","NORAD_CAT_ID":67857,"ELEMENT_SET_NO":999,"REV_AT_EPOCH":403,"BSTAR":0.00092303449,"MEAN_MOTION_DOT":0.00186057,"MEAN_MOTION_DDOT":0},{"OBJECT_NAME":"STARLINK-36837","OBJECT_ID":"2026-034J","EPOCH":"2026-03-09T20:26:58.708896","MEAN_MOTION":15.80976035,"ECCENTRICITY":9.03e-5,"INCLINATION":53.1587,"RA_OF_ASC_NODE":210.4715,"ARG_OF_PERICENTER":123.1299,"MEAN_ANOMALY":236.9811,"EPHEMERIS_TYPE":0,"CLASSIFICATION_TYPE":"U","NORAD_CAT_ID":67858,"ELEMENT_SET_NO":999,"REV_AT_EPOCH":396,"BSTAR":0.0013755,"MEAN_MOTION_DOT":0.00281136,"MEAN_MOTION_DDOT":0}]
